OBJECT_NAME,OBJECT_ID,EPOCH,MEAN_MOTION,ECCENTRICITY,INCLINATION,RA_OF_ASC_NODE,ARG_OF_PERICENTER,MEAN_ANOMALY,EPHEMERIS_TYPE,CLASSIFICATION_TYPE,NORAD_CAT_ID,ELEMENT_SET_NO,REV_AT_EPOCH,BSTAR,MEAN_MOTION_DOT,MEAN_MOTION_DDOT
M2 PATHFINDER,2020-037E,2026-07-10T10:54:25.003584,15.04783345,.00133151,97.8154,22.9493,77.2264,283.0449,0,U,45727,999,32899,.99713388E-4,.1345E-4,0
NETSAT-4,2020-068U,2026-07-09T14:38:23.150688,15.44626563,.00040196,97.8612,200.6643,217.4742,142.6226,0,U,46504,999,31923,.28187774E-3,.13033E-3,0
NETSAT-3,2020-068V,2026-07-10T11:25:27.944832,15.43499596,.00033159,97.8656,199.7886,232.8022,127.2923,0,U,46505,999,31927,.29504424E-3,.13134E-3,0
NETSAT-1,2020-068W,2026-07-10T19:12:13.678848,15.35180198,.0002469,97.8752,194.1870,290.2637,69.8340,0,U,46506,999,31892,.23952E-3,.8091E-4,0
NETSAT-2,2020-068X,2026-07-10T06:20:36.683808,15.47015084,.00015686,97.8618,201.3545,234.8555,125.2546,0,U,46507,999,31930,.35205322E-3,.17699E-3,0
GREENCUBE (IO-117),2022-080E,2026-07-10T05:14:37.423680,6.42583278,.00090084,70.1422,290.2367,284.7282,75.2379,0,U,53109,999,9354,0,-.3E-7,0
SITRO-AIS 5 (KATYS),2023-091L,2026-07-10T19:33:34.549344,15.30000565,.0011152,97.5054,255.9457,27.6906,332.4926,0,U,57176,999,16795,.26132E-3,.7524E-4,0
SITRO-AIS 6 (CHIRKIN),2023-091AC,2026-07-10T20:22:44.153760,15.26385832,.0011636,97.5061,254.9720,31.4879,328.7053,0,U,57192,999,16789,.24344E-3,.6269E-4,0
SITRO-AIS 8 (ANOKHIN),2023-091AD,2026-07-10T20:31:33.091104,15.32782120,.0009982,97.5049,257.6731,23.6343,336.5355,0,U,57193,999,16807,.28468E-3,.8947E-4,0
SITRO-AIS 7 (FARTUSHNIY),2023-091AE,2026-07-10T20:34:21.300672,15.26061695,.0011594,97.5057,254.7927,32.5725,327.6226,0,U,57194,999,16788,.2414E-3,.6155E-4,0
SITRO-AIS 10 (BURDAEV),2023-091AK,2026-07-10T20:24:30.655584,15.39517793,.0005271,97.5075,262.9712,359.3920,0.7318,0,U,57199,999,16840,.32351E-3,.1263E-3,0
SITRO-AIS 9 (SHCHUKIN),2023-091AM,2026-07-10T19:39:58.360608,15.39004444,.0005537,97.5073,262.6507,359.9404,0.1839,0,U,57201,999,16838,.32567E-3,.12503E-3,0
SITRO-AIS 12 (SMIRENNIY),2023-091AQ,2026-07-10T20:53:36.085056,15.39300684,.0005062,97.5087,263.1850,352.7532,7.3639,0,U,57204,999,16841,.33974E-3,.13174E-3,0
SITRO-AIS 11 (SHEFFER),2023-091AU,2026-07-10T21:03:20.129184,15.39742549,.0004958,97.5085,263.4538,352.3994,7.7175,0,U,57208,999,16843,.3348E-3,.13171E-3,0
SITRO-AIS 25,2024-039R,2026-07-10T19:48:08.518176,14.93626687,.0142483,95.3895,251.3361,244.9883,113.6491,0,U,59066,999,12825,.11794E-3,.1484E-4,0
SITRO-AIS 26,2024-039S,2026-07-10T19:54:48.219264,14.93418798,.0142819,95.3896,251.2320,245.5901,113.0366,0,U,59067,999,12824,.12464E-3,.1563E-4,0
SITRO-AIS 27,2024-039T,2026-07-10T20:38:49.952832,14.93844652,.0141905,95.3900,251.5359,244.0265,114.6285,0,U,59068,999,12827,.14544E-3,.1847E-4,0
SITRO-AIS 28,2024-039U,2026-07-10T20:05:35.297376,14.93876425,.0141795,95.3900,251.5686,243.9363,114.7210,0,U,59071,999,12827,.14222E-3,.1806E-4,0
GRBBETA,2024-128C,2026-07-09T07:40:21.012096,15.06782844,.00377691,61.9890,138.6053,139.4381,220.9537,0,U,60237,999,10960,.18353788E-3,.2568E-4,0
OOV-CUBE (TUBSAT-30),2024-128F,2026-07-09T14:40:40.950912,15.02859618,.00418074,61.9941,147.3745,138.6970,221.7297,0,U,60240,999,10948,.11248636E-3,.1327E-4,0
ROBUSTA-3A (MEDITERRANEE),2024-128J,2026-07-10T08:24:56.833056,15.11942365,.0038513,61.9855,126.3140,133.0366,227.3967,0,U,60243,999,10992,.31251812E-3,.5254E-4,0
LASARSAT,2024-247Q,2026-07-09T06:04:47.656704,15.47760337,.00065601,44.9739,138.0904,123.7678,236.3838,0,U,62391,999,8673,.55885757E-3,.29396E-3,0
CROCUBE,2024-247T,2026-07-10T04:33:02.620224,15.49924104,.00069141,44.9700,129.7539,137.1599,222.9832,0,U,62394,999,8691,.58811806E-3,.33442E-3,0
FORESAIL-1 PRIME,2025-276DS,2026-07-09T19:00:48.274560,15.18908946,.00032784,97.4192,263.6509,56.5130,303.6417,0,U,66778,999,3383,.15287384E-3,.3123E-4,0
KNACKSAT-2,1998-067XZ,2026-07-08T06:51:35.208288,15.61884949,.00082087,51.6260,188.2015,303.7179,56.3032,0,U,67683,999,2357,.40782476E-3,.35828E-3,0
