M2 PATHFINDER           
1 45727U 20037E   26191.45445606  .00001345  00000+0  99713-4 0  9995
2 45727  97.8154  22.9493 0013315  77.2264 283.0449 15.04783345328992
NETSAT-4                
1 46504U 20068U   26190.60999017  .00013033  00000+0  28188-3 0  9993
2 46504  97.8612 200.6643 0004019 217.4742 142.6226 15.44626563319239
NETSAT-3                
1 46505U 20068V   26191.47601788  .00013134  00000+0  29504-3 0  9990
2 46505  97.8656 199.7886 0003315 232.8022 127.2923 15.43499596319275
NETSAT-1                
1 46506U 20068W   26191.80015832  .00008091  00000+0  23952-3 0  9994
2 46506  97.8752 194.1870 0002469 290.2637  69.8340 15.35180198318925
NETSAT-2                
1 46507U 20068X   26191.26431347  .00017699  00000+0  35205-3 0  9996
2 46507  97.8618 201.3545 0001568 234.8555 125.2546 15.47015084319301
GREENCUBE (IO-117)      
1 53109U 22080E   26191.21848870 -.00000003  00000+0  00000+0 0  9999
2 53109  70.1422 290.2367 0009008 284.7282  75.2379  6.42583278 93544
SITRO-AIS 5 (KATYS)     
1 57176U 23091L   26191.81498321  .00007524  00000+0  26132-3 0  9990
2 57176  97.5054 255.9457 0011152  27.6906 332.4926 15.30000565167957
SITRO-AIS 6 (CHIRKIN)   
1 57192U 23091AC  26191.84912215  .00006269  00000+0  24344-3 0  9992
2 57192  97.5061 254.9720 0011636  31.4879 328.7053 15.26385832167894
SITRO-AIS 8 (ANOKHIN)   
1 57193U 23091AD  26191.85524411  .00008947  00000+0  28468-3 0  9997
2 57193  97.5049 257.6731 0009982  23.6343 336.5355 15.32782120168074
SITRO-AIS 7 (FARTUSHNIY)
1 57194U 23091AE  26191.85719098  .00006155  00000+0  24140-3 0  9997
2 57194  97.5057 254.7927 0011594  32.5725 327.6226 15.26061695167880
SITRO-AIS 10 (BURDAEV)  
1 57199U 23091AK  26191.85035481  .00012630  00000+0  32351-3 0  9997
2 57199  97.5075 262.9712 0005271 359.3920   0.7318 15.39517793168409
SITRO-AIS 9 (SHCHUKIN)  
1 57201U 23091AM  26191.81942547  .00012503  00000+0  32567-3 0  9995
2 57201  97.5073 262.6507 0005537 359.9404   0.1839 15.39004444168381
SITRO-AIS 12 (SMIRENNIY)
1 57204U 23091AQ  26191.87055654  .00013174  00000+0  33974-3 0  9996
2 57204  97.5087 263.1850 0005062 352.7532   7.3639 15.39300684168418
SITRO-AIS 11 (SHEFFER)  
1 57208U 23091AU  26191.87731631  .00013171  00000+0  33480-3 0  9995
2 57208  97.5085 263.4538 0004958 352.3994   7.7175 15.39742549168438
SITRO-AIS 25            
1 59066U 24039R   26191.82509859  .00001484  00000+0  11794-3 0  9990
2 59066  95.3895 251.3361 0142483 244.9883 113.6491 14.93626687128253
SITRO-AIS 26            
1 59067U 24039S   26191.82972476  .00001563  00000+0  12464-3 0  9993
2 59067  95.3896 251.2320 0142819 245.5901 113.0366 14.93418798128246
SITRO-AIS 27            
1 59068U 24039T   26191.86030038  .00001847  00000+0  14544-3 0  9993
2 59068  95.3900 251.5359 0141905 244.0265 114.6285 14.93844652128272
SITRO-AIS 28            
1 59071U 24039U   26191.83721409  .00001806  00000+0  14222-3 0  9991
2 59071  95.3900 251.5686 0141795 243.9363 114.7210 14.93876425128275
GRBBETA                 
1 60237U 24128C   26190.31968764  .00002568  00000+0  18354-3 0  9991
2 60237  61.9890 138.6053 0037769 139.4381 220.9537 15.06782844109609
OOV-CUBE (TUBSAT-30)    
1 60240U 24128F   26190.61158508  .00001327  00000+0  11249-3 0  9993
2 60240  61.9941 147.3745 0041807 138.6970 221.7297 15.02859618109486
ROBUSTA-3A (MEDITERRAN*)
1 60243U 24128J   26191.35065779  .00005254  00000+0  31252-3 0  9994
2 60243  61.9855 126.3140 0038513 133.0366 227.3967 15.11942365109924
LASARSAT                
1 62391U 24247Q   26190.25332936  .00029396  00000+0  55886-3 0  9994
2 62391  44.9739 138.0904 0006560 123.7678 236.3838 15.47760337 86735
CROCUBE                 
1 62394U 24247T   26191.18961366  .00033442  00000+0  58812-3 0  9994
2 62394  44.9700 129.7539 0006914 137.1599 222.9832 15.49924104 86912
FORESAIL-1 PRIME        
1 66778U 25276DS  26190.79222540  .00003123  00000+0  15287-3 0  9999
2 66778  97.4192 263.6509 0003278  56.5130 303.6417 15.18908946 33831
KNACKSAT-2              
1 67683U 98067XZ  26189.28582417  .00035828  00000+0  40782-3 0  9992
2 67683  51.6260 188.2015 0008208 303.7179  56.3032 15.61884949 23576
